[{"OBJECT_NAME":"JILIN-1 GAOFEN 03D15","OBJECT_ID":"2022-019R","EPOCH":"2026-03-09T23:58:07.561632","MEAN_MOTION":15.6920844,"ECCENTRICITY":0.00039863,"INCLINATION":97.369,"RA_OF_ASC_NODE":160.232,"ARG_OF_PERICENTER":172.8619,"MEAN_ANOMALY":187.27,"EPHEMERIS_TYPE":0,"CLASSIFICATION_TYPE":"U","NORAD_CAT_ID":51839,"ELEMENT_SET_NO":999,"REV_AT_EPOCH":22441,"BSTAR":0.0010884373,"MEAN_MOTION_DOT":0.00128061,"MEAN_MOTION_DDOT":0},{"OBJECT_NAME":"STARLINK-11322 [DTC]","OBJECT_ID":"2024-184L","EPOCH":"2026-03-09T18:03:03.210336","MEAN_MOTION":15.69696531,"ECCENTRICITY":0.00012708,"INCLINATION":53.1583,"RA_OF_ASC_NODE":236.2096,"ARG_OF_PERICENTER":113.5165,"MEAN_ANOMALY":246.5986,"EPHEMERIS_TYPE":0,"CLASSIFICATION_TYPE":"U","NORAD_CAT_ID":61542,"ELEMENT_SET_NO":999,"REV_AT_EPOCH":8148,"BSTAR":-8.575748e-6,"MEAN_MOTION_DOT":-1.627e-5,"MEAN_MOTION_DDOT":0}]
